SENTINEL-6              
1 46984U 20086A   24200.93049016 -.00000072  00000+0 -48620-4 0  9991
2 46984  66.0411 145.3398 0007910 270.0943  89.9166 12.80929924170896
